ORBCOMM FM24            
1 25478U 98053D   26024.79521345  .00001741  00000+0  60707-3 0  9996
2 25478  45.0078 297.8324 0002782 291.5662  68.4890 14.38795590429356
ORBCOMM FM25            
1 25479U 98053E   26024.91006907  .00001924  00000+0  66621-3 0  9997
2 25479  45.0067 295.5935 0005124 291.1848  68.8453 14.38766085429663
ORBCOMM FM26            
1 25480U 98053F   26024.79610093  .00001446  00000+0  52310-3 0  9991
2 25480  45.0065 294.2689 0007163 301.6843  58.3306 14.37713902429538
ORBCOMM FM27            
1 25481U 98053G   26024.75374698  .00001674  00000+0  58540-3 0  9990
2 25481  45.0054 296.4513 0001770 321.1533  38.9188 14.38802241429570
ORBCOMM FM28            
1 25482U 98053H   26024.90648209  .00001692  00000+0  58995-3 0  9994
2 25482  45.0032 232.9639 0004373 339.9579  20.1097 14.38911479430286
ORBCOMM FM30            
1 25980U 99065A   26024.62189645  .00001581  00000+0  56598-3 0  9998
2 25980  45.0301 121.1553 0004563  37.4430 322.6736 14.37872088366312
ORBCOMM FM31            
1 25981U 99065B   26024.67518774  .00001628  00000+0  58242-3 0  9993
2 25981  45.0226 114.3498 0002207  80.9030 279.2068 14.37794731365876
ORBCOMM FM32            
1 25982U 99065C   26024.72862753  .00001645  00000+0  59893-3 0  9991
2 25982  45.0140 132.1530 0004598  69.4400 290.6941 14.36860535366452
